window._tle = "PEGASUS\n1 42784U 17036V   21229.41185333  .00001508  00000-0  63746-4 0  9990\n2 42784  97.2458 276.5246 0010320 332.3077  27.7610 15.24681815230644";
